COSMOS 2058             
1 20465U 90010A   26070.30335993  .00004922  00000+0  29015-3 0  9993
2 20465  82.4671  45.8379 0009105 339.2028  20.8830 15.11338561942487
SL-14 R/B               
1 20466U 90010B   26070.03582876  .00000486  00000+0  55980-4 0  9990
2 20466  82.4987 266.1239 0018472 297.5723  62.3615 14.83569997928681
SL-14 R/B               
1 20511U 90018B   26069.91994578  .00000634  00000+0  76456-4 0  9996
2 20511  82.5205 221.9395 0017666  88.3207 272.0031 14.82146372922767
HST                     
1 20580U 90037B   26070.24775401  .00008856  00000+0  29286-3 0  9995
2 20580  28.4722  29.3700 0001841 140.8013 219.2716 15.29511346773556
SL-16 R/B               
1 20625U 90046B   26070.04033451 -.00000216  00000+0 -86526-4 0  9990
2 20625  70.9986 295.0781 0016256 297.7656  62.1818 14.15011893848582
COSMOS 2084             
1 20663U 90055A   26070.05024556  .00002932  00000+0  21534-3 0  9991
2 20663  62.7921 330.9381 0016887 190.4078 169.6676 15.05661150936528
SL-6 R/B(2)             
1 20666U 90055D   26069.90173755  .00002544  00000+0  19859-3 0  9998
2 20666  62.7825 249.7283 0024978 347.3471  12.6998 15.03601272938378
SL-8 R/B                
1 20775U 90078B   26070.18829477  .00017367  00000+0  51168-3 0  9993
2 20775  82.9009 249.9629 0361875   8.9629 351.7816 14.89118134809521
SL-8 R/B                
1 21088U 91006B   26070.29354045  .00000081  00000+0  65425-4 0  9996
2 21088  82.9466 168.8537 0022977  33.9469  20.0604 13.77494512764298
OKEAN-3                 
1 21397U 91039A   26070.20840674  .00004361  00000+0  30638-3 0  9996
2 21397  82.5194 335.3724 0013835 332.2989  27.7499 15.04818805865261
COSMOS 2151             
1 21422U 91042A   26070.28423295  .00001940  00000+0  15321-3 0  9995
2 21422  82.4931  82.1376 0013949  59.0212 301.2380 15.00110467863438
SL-14 R/B               
1 21423U 91042B   26069.90567993  .00000622  00000+0  75710-4 0  9992
2 21423  82.4926 219.0420 0015845 234.3485 125.6254 14.81831051853255
